LEO 1 (LEO VANTAGE 1)   
1 43113U 18004C   26068.70632107  .00005709  00000+0  39603-3 0  9997
2 43113  99.2469 334.0284 0352942  24.8540 336.9207 14.67184901422891
STARLINK-35740          
1 66210U 25244E   26068.76066554  .00009697  00000+0  33890-3 0  9999
2 66210  53.1592 229.3552 0001353  59.5260 300.5874 15.30219277 21679
